STARLINK-36391          
1 67591U 26018C   26046.24901741  .00267950  00000+0  13513-2 0  9994
2 67591  97.2837 110.9259 0001015  62.3186 297.8185 15.80909259  3771
STARLINK-36603          
1 67592U 26018D   26046.24826785  .00338839  00000+0  16911-2 0  9999
2 67592  97.2839 110.9270 0001008  85.8090 274.3294 15.80954993  3779
STARLINK-36634          
1 67593U 26018E   26046.24711900  .00366206  00000+0  18213-2 0  9998
2 67593  97.2840 110.9280 0001204  88.8302 271.3104 15.80961583  3770
STARLINK-36638          
1 67594U 26018F   26046.18270878  .00203605  00000+0  10351-2 0  9994
2 67594  97.2844 110.8628 0001261  88.8683 271.2729 15.80901044  3762
STARLINK-36628          
1 67595U 26018G   26046.25002315 -.01498152  00000+0 -10857-1 0  9998
2 67595  97.2840 110.9332 0001364  67.3161 312.2139 15.76309107  3734
STARLINK-36629          
1 67596U 26018H   26046.25002315 -.00048263  00000+0 -32381-3 0  9990
2 67596  97.2843 110.9149 0001423  66.9184 269.2404 15.75241117  3731
STARLINK-36384          
1 67597U 26018J   26046.24306349  .00338094  00000+0  16883-2 0  9994
2 67597  97.2845 110.9328 0001082 128.0310 232.1056 15.80945154  3779
STARLINK-36358          
1 67598U 26018K   26046.25002315 -.00068399  00000+0 -46049-3 0  9990
2 67598  97.2840 110.9290 0001132  81.1212 289.0475 15.75235116  3780
STARLINK-36582          
1 67599U 26018L   26046.24110820  .00357550  00000+0  17797-2 0  9996
2 67599  97.2846 110.9353 0000958  82.6886 277.4491 15.80965479  3827
STARLINK-36640          
1 67600U 26018M   26046.25002315 -.00083638  00000+0 -56393-3 0  9990
2 67600  97.2841 110.9194 0001209  96.3448 251.8201 15.75249067  3742
STARLINK-36635          
1 67601U 26018N   26046.24022246  .00336409  00000+0  16801-2 0  9999
2 67601  97.2847 110.9362 0000955  84.7024 275.4354 15.80946154  3775
STARLINK-36631          
1 67602U 26018P   26046.23784314  .00332216  00000+0  16597-2 0  9994
2 67602  97.2850 110.9393 0001128  68.3872 291.7517 15.80949819  3779
