CCSDS_OMM_VERS = 2.0
CREATION_DATE  = 
ORIGINATOR     = 

OBJECT_NAME    = STARLINK-36391
OBJECT_ID      = 2026-018C
CENTER_NAME    = EARTH
REF_FRAME      = TEME
TIME_SYSTEM    = UTC
MEAN_ELEMENT_THEORY = SGP/SGP4

EPOCH          = 2026-02-15T05:58:35.104224
MEAN_MOTION    = 15.80909259
ECCENTRICITY   = .00010159
INCLINATION    = 97.2837
RA_OF_ASC_NODE = 110.9259
ARG_OF_PERICENTER = 62.3186
MEAN_ANOMALY   = 297.8185

EPHEMERIS_TYPE = 0
CLASSIFICATION_TYPE = U
NORAD_CAT_ID   = 67591
ELEMENT_SET_NO = 999
REV_AT_EPOCH   = 377
BSTAR          = .13513284E-2
MEAN_MOTION_DOT = .26795E-2
MEAN_MOTION_DDOT = 0

CCSDS_OMM_VERS = 2.0
CREATION_DATE  = 
ORIGINATOR     = 

OBJECT_NAME    = STARLINK-36603
OBJECT_ID      = 2026-018D
CENTER_NAME    = EARTH
REF_FRAME      = TEME
TIME_SYSTEM    = UTC
MEAN_ELEMENT_THEORY = SGP/SGP4

EPOCH          = 2026-02-15T05:57:30.342240
MEAN_MOTION    = 15.80954993
ECCENTRICITY   = .00010086
INCLINATION    = 97.2839
RA_OF_ASC_NODE = 110.9270
ARG_OF_PERICENTER = 85.8090
MEAN_ANOMALY   = 274.3294

EPHEMERIS_TYPE = 0
CLASSIFICATION_TYPE = U
NORAD_CAT_ID   = 67592
ELEMENT_SET_NO = 999
REV_AT_EPOCH   = 377
BSTAR          = .16911143E-2
MEAN_MOTION_DOT = .338839E-2
MEAN_MOTION_DDOT = 0

CCSDS_OMM_VERS = 2.0
CREATION_DATE  = 
ORIGINATOR     = 

OBJECT_NAME    = STARLINK-36634
OBJECT_ID      = 2026-018E
CENTER_NAME    = EARTH
REF_FRAME      = TEME
TIME_SYSTEM    = UTC
MEAN_ELEMENT_THEORY = SGP/SGP4

EPOCH          = 2026-02-15T05:55:51.081600
MEAN_MOTION    = 15.80961583
ECCENTRICITY   = .0001204
INCLINATION    = 97.2840
RA_OF_ASC_NODE = 110.9280
ARG_OF_PERICENTER = 88.8302
MEAN_ANOMALY   = 271.3104

EPHEMERIS_TYPE = 0
CLASSIFICATION_TYPE = U
NORAD_CAT_ID   = 67593
ELEMENT_SET_NO = 999
REV_AT_EPOCH   = 377
BSTAR          = .18213069E-2
MEAN_MOTION_DOT = .366206E-2
MEAN_MOTION_DDOT = 0

CCSDS_OMM_VERS = 2.0
CREATION_DATE  = 
ORIGINATOR     = 

OBJECT_NAME    = STARLINK-36638
OBJECT_ID      = 2026-018F
CENTER_NAME    = EARTH
REF_FRAME      = TEME
TIME_SYSTEM    = UTC
MEAN_ELEMENT_THEORY = SGP/SGP4

EPOCH          = 2026-02-15T04:23:06.038592
MEAN_MOTION    = 15.80901044
ECCENTRICITY   = .00012618
INCLINATION    = 97.2844
RA_OF_ASC_NODE = 110.8628
ARG_OF_PERICENTER = 88.8683
MEAN_ANOMALY   = 271.2729

EPHEMERIS_TYPE = 0
CLASSIFICATION_TYPE = U
NORAD_CAT_ID   = 67594
ELEMENT_SET_NO = 999
REV_AT_EPOCH   = 376
BSTAR          = .10350565E-2
MEAN_MOTION_DOT = .203605E-2
MEAN_MOTION_DDOT = 0

CCSDS_OMM_VERS = 2.0
CREATION_DATE  = 
ORIGINATOR     = 

OBJECT_NAME    = STARLINK-36628
OBJECT_ID      = 2026-018G
CENTER_NAME    = EARTH
REF_FRAME      = TEME
TIME_SYSTEM    = UTC
MEAN_ELEMENT_THEORY = SGP/SGP4

EPOCH          = 2026-02-15T06:00:02.000160
MEAN_MOTION    = 15.76309107
ECCENTRICITY   = .0001364
INCLINATION    = 97.2840
RA_OF_ASC_NODE = 110.9332
ARG_OF_PERICENTER = 67.3161
MEAN_ANOMALY   = 312.2139

EPHEMERIS_TYPE = 0
CLASSIFICATION_TYPE = U
NORAD_CAT_ID   = 67595
ELEMENT_SET_NO = 999
REV_AT_EPOCH   = 373
BSTAR          = -.10856731E-1
MEAN_MOTION_DOT = -.1498152E-1
MEAN_MOTION_DDOT = 0

CCSDS_OMM_VERS = 2.0
CREATION_DATE  = 
ORIGINATOR     = 

OBJECT_NAME    = STARLINK-36629
OBJECT_ID      = 2026-018H
CENTER_NAME    = EARTH
REF_FRAME      = TEME
TIME_SYSTEM    = UTC
MEAN_ELEMENT_THEORY = SGP/SGP4

EPOCH          = 2026-02-15T06:00:02.000160
MEAN_MOTION    = 15.75241117
ECCENTRICITY   = .00014239
INCLINATION    = 97.2843
RA_OF_ASC_NODE = 110.9149
ARG_OF_PERICENTER = 66.9184
MEAN_ANOMALY   = 269.2404

EPHEMERIS_TYPE = 0
CLASSIFICATION_TYPE = U
NORAD_CAT_ID   = 67596
ELEMENT_SET_NO = 999
REV_AT_EPOCH   = 373
BSTAR          = -.32380819E-3
MEAN_MOTION_DOT = -.48263E-3
MEAN_MOTION_DDOT = 0

CCSDS_OMM_VERS = 2.0
CREATION_DATE  = 
ORIGINATOR     = 

OBJECT_NAME    = STARLINK-36384
OBJECT_ID      = 2026-018J
CENTER_NAME    = EARTH
REF_FRAME      = TEME
TIME_SYSTEM    = UTC
MEAN_ELEMENT_THEORY = SGP/SGP4

EPOCH          = 2026-02-15T05:50:00.685536
MEAN_MOTION    = 15.80945154
ECCENTRICITY   = .00010821
INCLINATION    = 97.2845
RA_OF_ASC_NODE = 110.9328
ARG_OF_PERICENTER = 128.0310
MEAN_ANOMALY   = 232.1056

EPHEMERIS_TYPE = 0
CLASSIFICATION_TYPE = U
NORAD_CAT_ID   = 67597
ELEMENT_SET_NO = 999
REV_AT_EPOCH   = 377
BSTAR          = .16883048E-2
MEAN_MOTION_DOT = .338094E-2
MEAN_MOTION_DDOT = 0

CCSDS_OMM_VERS = 2.0
CREATION_DATE  = 
ORIGINATOR     = 

OBJECT_NAME    = STARLINK-36358
OBJECT_ID      = 2026-018K
CENTER_NAME    = EARTH
REF_FRAME      = TEME
TIME_SYSTEM    = UTC
MEAN_ELEMENT_THEORY = SGP/SGP4

EPOCH          = 2026-02-15T06:00:02.000160
MEAN_MOTION    = 15.75235116
ECCENTRICITY   = .00011323
INCLINATION    = 97.2840
RA_OF_ASC_NODE = 110.9290
ARG_OF_PERICENTER = 81.1212
MEAN_ANOMALY   = 289.0475

EPHEMERIS_TYPE = 0
CLASSIFICATION_TYPE = U
NORAD_CAT_ID   = 67598
ELEMENT_SET_NO = 999
REV_AT_EPOCH   = 378
BSTAR          = -.4604877E-3
MEAN_MOTION_DOT = -.68399E-3
MEAN_MOTION_DDOT = 0

CCSDS_OMM_VERS = 2.0
CREATION_DATE  = 
ORIGINATOR     = 

OBJECT_NAME    = STARLINK-36582
OBJECT_ID      = 2026-018L
CENTER_NAME    = EARTH
REF_FRAME      = TEME
TIME_SYSTEM    = UTC
MEAN_ELEMENT_THEORY = SGP/SGP4

EPOCH          = 2026-02-15T05:47:11.748480
MEAN_MOTION    = 15.80965479
ECCENTRICITY   = .00009586
INCLINATION    = 97.2846
RA_OF_ASC_NODE = 110.9353
ARG_OF_PERICENTER = 82.6886
MEAN_ANOMALY   = 277.4491

EPHEMERIS_TYPE = 0
CLASSIFICATION_TYPE = U
NORAD_CAT_ID   = 67599
ELEMENT_SET_NO = 999
REV_AT_EPOCH   = 382
BSTAR          = .1779723E-2
MEAN_MOTION_DOT = .35755E-2
MEAN_MOTION_DDOT = 0

CCSDS_OMM_VERS = 2.0
CREATION_DATE  = 
ORIGINATOR     = 

OBJECT_NAME    = STARLINK-36640
OBJECT_ID      = 2026-018M
CENTER_NAME    = EARTH
REF_FRAME      = TEME
TIME_SYSTEM    = UTC
MEAN_ELEMENT_THEORY = SGP/SGP4

EPOCH          = 2026-02-15T06:00:02.000160
MEAN_MOTION    = 15.75249067
ECCENTRICITY   = .00012098
INCLINATION    = 97.2841
RA_OF_ASC_NODE = 110.9194
ARG_OF_PERICENTER = 96.3448
MEAN_ANOMALY   = 251.8201

EPHEMERIS_TYPE = 0
CLASSIFICATION_TYPE = U
NORAD_CAT_ID   = 67600
ELEMENT_SET_NO = 999
REV_AT_EPOCH   = 374
BSTAR          = -.56393383E-3
MEAN_MOTION_DOT = -.83638E-3
MEAN_MOTION_DDOT = 0

CCSDS_OMM_VERS = 2.0
CREATION_DATE  = 
ORIGINATOR     = 

OBJECT_NAME    = STARLINK-36635
OBJECT_ID      = 2026-018N
CENTER_NAME    = EARTH
REF_FRAME      = TEME
TIME_SYSTEM    = UTC
MEAN_ELEMENT_THEORY = SGP/SGP4

EPOCH          = 2026-02-15T05:45:55.220544
MEAN_MOTION    = 15.80946154
ECCENTRICITY   = .00009556
INCLINATION    = 97.2847
RA_OF_ASC_NODE = 110.9362
ARG_OF_PERICENTER = 84.7024
MEAN_ANOMALY   = 275.4354

EPHEMERIS_TYPE = 0
CLASSIFICATION_TYPE = U
NORAD_CAT_ID   = 67601
ELEMENT_SET_NO = 999
REV_AT_EPOCH   = 377
BSTAR          = .16801341E-2
MEAN_MOTION_DOT = .336409E-2
MEAN_MOTION_DDOT = 0

CCSDS_OMM_VERS = 2.0
CREATION_DATE  = 
ORIGINATOR     = 

OBJECT_NAME    = STARLINK-36631
OBJECT_ID      = 2026-018P
CENTER_NAME    = EARTH
REF_FRAME      = TEME
TIME_SYSTEM    = UTC
MEAN_ELEMENT_THEORY = SGP/SGP4

EPOCH          = 2026-02-15T05:42:29.647296
MEAN_MOTION    = 15.80949819
ECCENTRICITY   = .0001128
INCLINATION    = 97.2850
RA_OF_ASC_NODE = 110.9393
ARG_OF_PERICENTER = 68.3872
MEAN_ANOMALY   = 291.7517

EPHEMERIS_TYPE = 0
CLASSIFICATION_TYPE = U
NORAD_CAT_ID   = 67602
ELEMENT_SET_NO = 999
REV_AT_EPOCH   = 377
BSTAR          = .16597474E-2
MEAN_MOTION_DOT = .332216E-2
MEAN_MOTION_DDOT = 0

